{"type": "FeatureCollection", "features": [ {"type": "Feature", "properties": {"norad_id": 30596, "name": "FENGYUN 1C DEB", "group": "fengyun-1c-debris", "lat": -80.95811012165196, "lon": 49.480175470154734, "alt_km": 624.8923235527955, "timestamp": "2025-12-09T05:43:21.003359+00:00", "meta": {"OBJECT_NAME": "FENGYUN 1C DEB", "OBJECT_ID": "1999-025AMB", "EPOCH": "2025-12-07T22:26:10.005792", "MEAN_MOTION": 14.34336347, "ECCENTRICITY": 0.02475609, "INCLINATION": 98.4129, "RA_OF_ASC_NODE": 339.7768, "ARG_OF_PERICENTER": 303.4738, "MEAN_ANOMALY": 83.6667, "EPHEMERIS_TYPE": 0, "CLASSIFICATION_TYPE": "U", "NORAD_CAT_ID": 30596, "ELEMENT_SET_NO": 999, "REV_AT_EPOCH": 98492, "BSTAR": 0.00062869466, "MEAN_MOTION_DOT": 2.442e-05, "MEAN_MOTION_DDOT": 0}, "tle": {"line1": "1 30596U 99025AMB 25341.93483803  .00002442  00000+0  62869-3 0  9996", "line2": "2 30596  98.4129 339.7768 0247560 303.4738  83.6667 14.34336347984929"}}, "geometry": {"type": "Point", "coordinates": [49.480175470154734, -80.95811012165196]}}, {"type": "Feature", "properties": {"norad_id": 30597, "name": "FENGYUN 1C DEB", "group": "fengyun-1c-debris", "lat": 36.36279838247992, "lon": 105.89053070952025, "alt_km": 563.4757286815611, "timestamp": "2025-12-09T05:43:21.003370+00:00", "meta": {"OBJECT_NAME": "FENGYUN 1C DEB", "OBJECT_ID": "1999-025AMC", "EPOCH": "2025-12-08T06:32:45.550752", "MEAN_MOTION": 14.91762245, "ECCENTRICITY": 0.00445307, "INCLINATION": 98.9449, "RA_OF_ASC_NODE": 278.1365, "ARG_OF_PERICENTER": 178.9859, "MEAN_ANOMALY": 181.1454, "EPHEMERIS_TYPE": 0, "CLASSIFICATION_TYPE": "U", "NORAD_CAT_ID": 30597, "ELEMENT_SET_NO": 999, "REV_AT_EPOCH": 98470, "BSTAR": 0.0055206444, "MEAN_MOTION_DOT": 0.00057057, "MEAN_MOTION_DDOT": 0}, "tle": {"line1": "1 30597U 99025AMC 25342.27274943  .00057057  00000+0  55206-2 0  9996", "line2": "2 30597  98.9449 278.1365 0044530 178.9859 181.1454 14.91762245984707"}}, "geometry": {"type": "Point", "coordinates": [105.89053070952025, 36.36279838247992]}}, {"type": "Feature", "properties": {"norad_id": 30599, "name": "FENGYUN 1C DEB", "group": "fengyun-1c-debris", "lat": 63.66778154074745, "lon": -22.85676418306812, "alt_km": 740.3907567330725, "timestamp": "2025-12-09T05:43:21.003380+00:00", "meta": {"OBJECT_NAME": "FENGYUN 1C DEB", "OBJECT_ID": "1999-025AME", "EPOCH": "2025-12-07T17:54:38.760480", "MEAN_MOTION": 14.19654052, "ECCENTRICITY": 0.03027126, "INCLINATION": 98.6032, "RA_OF_ASC_NODE": 353.502, "ARG_OF_PERICENTER": 359.2309, "MEAN_ANOMALY": 0.8364, "EPHEMERIS_TYPE": 0, "CLASSIFICATION_TYPE": "U", "NORAD_CAT_ID": 30599, "ELEMENT_SET_NO": 999, "REV_AT_EPOCH": 97096, "BSTAR": 0.0013635372, "MEAN_MOTION_DOT": 4.516e-05, "MEAN_MOTION_DDOT": 0}, "tle": {"line1": "1 30599U 99025AME 25341.74628195  .00004516  00000+0  13635-2 0  9993", "line2": "2 30599  98.6032 353.5020 0302712 359.2309   0.8364 14.19654052970969"}}, "geometry": {"type": "Point", "coordinates": [-22.85676418306812, 63.66778154074745]}}, {"type": "Feature", "properties": {"norad_id": 30600, "name": "FENGYUN 1C DEB", "group": "fengyun-1c-debris", "lat": -36.50172219500266, "lon": -65.50215781561519, "alt_km": 770.1731071920458, "timestamp": "2025-12-09T05:43:21.003391+00:00", "meta": {"OBJECT_NAME": "FENGYUN 1C DEB", "OBJECT_ID": "1999-025AMF", "EPOCH": "2025-12-08T19:39:31.516992", "MEAN_MOTION": 14.07373455, "ECCENTRICITY": 0.0328416, "INCLINATION": 98.3883, "RA_OF_ASC_NODE": 287.8391, "ARG_OF_PERICENTER": 258.6579, "MEAN_ANOMALY": 97.7531, "EPHEMERIS_TYPE": 0, "CLASSIFICATION_TYPE": "U", "NORAD_CAT_ID": 30600, "ELEMENT_SET_NO": 999, "REV_AT_EPOCH": 94377, "BSTAR": 0.0069173, "MEAN_MOTION_DOT": 0.00019045, "MEAN_MOTION_DDOT": 0}, "tle": {"line1": "1 30600U 99025AMF 25342.81911478  .00019045  00000+0  69173-2 0  9995", "line2": "2 30600  98.3883 287.8391 0328416 258.6579  97.7531 14.07373455943775"}}, "geometry": {"type": "Point", "coordinates": [-65.50215781561519, -36.50172219500266]}}, {"type": "Feature", "properties": {"norad_id": 30602, "name": "FENGYUN 1C DEB", "group": "fengyun-1c-debris", "lat": 0.7874868483154993, "lon": -103.50652590206126, "alt_km": 603.7408120532627, "timestamp": "2025-12-09T05:43:21.003401+00:00", "meta": {"OBJECT_NAME": "FENGYUN 1C DEB", "OBJECT_ID": "1999-025AMH", "EPOCH": "2025-12-08T17:07:50.249856", "MEAN_MOTION": 14.90300882, "ECCENTRICITY": 0.0009426, "INCLINATION": 99.0327, "RA_OF_ASC_NODE": 256.0196, "ARG_OF_PERICENTER": 131.8885, "MEAN_ANOMALY": 295.8415, "EPHEMERIS_TYPE": 0, "CLASSIFICATION_TYPE": "U", "NORAD_CAT_ID": 30602, "ELEMENT_SET_NO": 999, "REV_AT_EPOCH": 97745, "BSTAR": 0.0098453, "MEAN_MOTION_DOT": 0.00096982, "MEAN_MOTION_DDOT": 0}, "tle": {"line1": "1 30602U 99025AMH 25342.71377604  .00096982  00000+0  98453-2 0  9991", "line2": "2 30602  99.0327 256.0196 0009426 131.8885 295.8415 14.90300882977458"}}, "geometry": {"type": "Point", "coordinates": [-103.50652590206126, 0.7874868483154993]}}, {"type": "Feature", "properties": {"norad_id": 30603, "name": "FENGYUN 1C DEB", "group": "fengyun-1c-debris", "lat": -24.616841876179855, "lon": -177.36822018615138, "alt_km": 822.6026577690582, "timestamp": "2025-12-09T05:43:21.003411+00:00", "meta": {"OBJECT_NAME": "FENGYUN 1C DEB", "OBJECT_ID": "1999-025AMJ", "EPOCH": "2025-12-08T01:15:11.407968", "MEAN_MOTION": 13.84099041, "ECCENTRICITY": 0.01831852, "INCLINATION": 98.4095, "RA_OF_ASC_NODE": 5.4555, "ARG_OF_PERICENTER": 218.1582, "MEAN_ANOMALY": 199.5793, "EPHEMERIS_TYPE": 0, "CLASSIFICATION_TYPE": "U", "NORAD_CAT_ID": 30603, "ELEMENT_SET_NO": 999, "REV_AT_EPOCH": 94811, "BSTAR": 0.001744545, "MEAN_MOTION_DOT": 2.174e-05, "MEAN_MOTION_DDOT": 0}, "tle": {"line1": "1 30603U 99025AMJ 25342.05221537  .00002174  00000+0  17445-2 0  9994", "line2": "2 30603  98.4095   5.4555 0183185 218.1582 199.5793 13.84099041948111"}}, "geometry": {"type": "Point", "coordinates": [-177.36822018615138, -24.616841876179855]}}, {"type": "Feature", "properties": {"norad_id": 30604, "name": "FENGYUN 1C DEB", "group": "fengyun-1c-debris", "lat": 79.66345651872122, "lon": -107.6326543954572, "alt_km": 773.7365545145185, "timestamp": "2025-12-09T05:43:21.003422+00:00", "meta": {"OBJECT_NAME": "FENGYUN 1C DEB", "OBJECT_ID": "1999-025AMK", "EPOCH": "2025-12-08T09:06:41.243328", "MEAN_MOTION": 14.23599788, "ECCENTRICITY": 0.02099617, "INCLINATION": 98.4029, "RA_OF_ASC_NODE": 17.4087, "ARG_OF_PERICENTER": 19.6162, "MEAN_ANOMALY": 355.2798, "EPHEMERIS_TYPE": 0, "CLASSIFICATION_TYPE": "U", "NORAD_CAT_ID": 30604, "ELEMENT_SET_NO": 999, "REV_AT_EPOCH": 97777, "BSTAR": 0.00053289688, "MEAN_MOTION_DOT": 1.479e-05, "MEAN_MOTION_DDOT": 0}, "tle": {"line1": "1 30604U 99025AMK 25342.37964402  .00001479  00000+0  53290-3 0  9991", "line2": "2 30604  98.4029  17.4087 0209961  19.6162 355.2798 14.23599788977778"}}, "geometry": {"type": "Point", "coordinates": [-107.6326543954572, 79.66345651872122]}}, {"type": "Feature", "properties": {"norad_id": 30606, "name": "FENGYUN 1C DEB", "group": "fengyun-1c-debris", "lat": 14.337306288307245, "lon": -8.596211091842582, "alt_km": 804.3618804560328, "timestamp": "2025-12-09T05:43:21.003432+00:00", "meta": {"OBJECT_NAME": "FENGYUN 1C DEB", "OBJECT_ID": "1999-025AMM", "EPOCH": "2025-12-08T12:13:13.780128", "MEAN_MOTION": 14.57589446, "ECCENTRICITY": 0.02140599, "INCLINATION": 98.0959, "RA_OF_ASC_NODE": 352.7788, "ARG_OF_PERICENTER": 150.3088, "MEAN_ANOMALY": 1.7423, "EPHEMERIS_TYPE": 0, "CLASSIFICATION_TYPE": "U", "NORAD_CAT_ID": 30606, "ELEMENT_SET_NO": 999, "REV_AT_EPOCH": 99180, "BSTAR": 0.00078173995, "MEAN_MOTION_DOT": 4.83e-05, "MEAN_MOTION_DDOT": 0}, "tle": {"line1": "1 30606U 99025AMM 25342.50918727  .00004830  00000+0  78174-3 0  9999", "line2": "2 30606  98.0959 352.7788 0214059 150.3088   1.7423 14.57589446991800"}}, "geometry": {"type": "Point", "coordinates": [-8.596211091842582, 14.337306288307245]}}, {"type": "Feature", "properties": {"norad_id": 30608, "name": "FENGYUN 1C DEB", "group": "fengyun-1c-debris", "lat": 67.86335838547754, "lon": -111.95268969295402, "alt_km": 788.0762285471237, "timestamp": "2025-12-09T05:43:21.003442+00:00", "meta": {"OBJECT_NAME": "FENGYUN 1C DEB", "OBJECT_ID": "1999-025AMP", "EPOCH": "2025-12-08T19:41:18.525984", "MEAN_MOTION": 14.28443829, "ECCENTRICITY": 0.0015848, "INCLINATION": 98.7102, "RA_OF_ASC_NODE": 45.4917, "ARG_OF_PERICENTER": 190.4738, "MEAN_ANOMALY": 291.3579, "EPHEMERIS_TYPE": 0, "CLASSIFICATION_TYPE": "U", "NORAD_CAT_ID": 30608, "ELEMENT_SET_NO": 999, "REV_AT_EPOCH": 97383, "BSTAR": 0.0019867, "MEAN_MOTION_DOT": 4.936e-05, "MEAN_MOTION_DDOT": 0}, "tle": {"line1": "1 30608U 99025AMP 25342.82035331  .00004936  00000+0  19867-2 0  9997", "line2": "2 30608  98.7102  45.4917 0015848 190.4738 291.3579 14.28443829973835"}}, "geometry": {"type": "Point", "coordinates": [-111.95268969295402, 67.86335838547754]}}, {"type": "Feature", "properties": {"norad_id": 30609, "name": "FENGYUN 1C DEB", "group": "fengyun-1c-debris", "lat": -37.62672928747613, "lon": 73.33928133442335, "alt_km": 939.6999713531168, "timestamp": "2025-12-09T05:43:21.003453+00:00", "meta": {"OBJECT_NAME": "FENGYUN 1C DEB", "OBJECT_ID": "1999-025AMQ", "EPOCH": "2025-12-06T17:08:31.037568", "MEAN_MOTION": 14.11134801, "ECCENTRICITY": 0.01189523, "INCLINATION": 98.5675, "RA_OF_ASC_NODE": 257.6035, "ARG_OF_PERICENTER": 69.9172, "MEAN_ANOMALY": 291.4756, "EPHEMERIS_TYPE": 0, "CLASSIFICATION_TYPE": "U", "NORAD_CAT_ID": 30609, "ELEMENT_SET_NO": 999, "REV_AT_EPOCH": 95643, "BSTAR": 0.0036904109, "MEAN_MOTION_DOT": 7.069e-05, "MEAN_MOTION_DDOT": 0}, "tle": {"line1": "1 30609U 99025AMQ 25340.71424812  .00007069  00000+0  36904-2 0  9991", "line2": "2 30609  98.5675 257.6035 0118952  69.9172 291.4756 14.11134801956433"}}, "geometry": {"type": "Point", "coordinates": [73.33928133442335, -37.62672928747613]}}]}